<?xml version="1.0" encoding="utf-8"?>
<kml xmlns="http://www.opengis.net/kml/2.2">
  <Document>
    <name>🧭 LIVE SURFACE PRESSURE</name>
    <description><![CDATA[<h2>LIVE SURFACE PRESSURE</h2><p>This entry auto-refreshes from the live overlay (source: NOAA/NCEP HRRR 3 km MSLMA mean sea-level pressure analysis (hourly cycles)).<br/><b>Data time:</b> 2026-09-25 12:00 PM EDT<br/><b>Source version:</b> hrrr-hrrr.20260925-t16z-mslma-anl<br/><b>Status:</b> LIVE / CURRENT MODEL (hourly HRRR cycle)</p><p>Turn on/off independently of all other layers. Add this file once; new source cycles appear automatically.</p><p><i>Not endorsed by NOAA.</i></p>]]></description>
    <NetworkLink>
      <name>🧭 LIVE SURFACE PRESSURE — auto-refresh</name>
      <Link>
        <href>https://wyattleathorn7.github.io/great-lakes-live-environment/kml/live/Great_Lakes_Live_Surface_Pressure.kml</href>
        <refreshMode>onInterval</refreshMode>
        <refreshInterval>3600</refreshInterval>
      </Link>
    </NetworkLink>
  </Document>
</kml>
