<?xml version="1.0" encoding="utf-8"?>
<kml xmlns="http://www.opengis.net/kml/2.2">
  <Document>
    <name>🧊 LIVE ICE THICKNESS</name>
    <description><![CDATA[<h2>LIVE ICE THICKNESS</h2><p>This entry auto-refreshes from the live overlay (source: U.S. National Ice Center (NAIS) daily Great Lakes ice analysis, SIGRID-3 shapefile).<br/><b>Data time:</b> NIC analysis date 2026-05-16 (from NIC filename; retrieved 2026-09-23 01:30 UTC)<br/><b>Source version:</b> nic-2026-05-16-5548ec16696d<br/><b>Status:</b> LATEST AVAILABLE (daily analysis, seasonal product)</p><p>Turn on/off independently of the other ice, wave and temperature layers. Add this file once; new source cycles appear automatically.</p><p><i>Not endorsed by NOAA.</i></p>]]></description>
    <NetworkLink>
      <name>🧊 LIVE ICE THICKNESS — auto-refresh</name>
      <Link>
        <href>https://wyattleathorn7.github.io/great-lakes-live-environment/kml/live/Great_Lakes_Live_Ice_Thickness.kml</href>
        <refreshMode>onInterval</refreshMode>
        <refreshInterval>21600</refreshInterval>
      </Link>
    </NetworkLink>
  </Document>
</kml>
