<?xml version="1.0" encoding="utf-8"?>
<kml xmlns="http://www.opengis.net/kml/2.2">
  <Document>
    <name>🌊 LIVE WAVE DIRECTION</name>
    <description><![CDATA[<h2>LIVE WAVE DIRECTION</h2><p>This entry auto-refreshes from the live overlay (source: NOAA/NCEP Great Lakes Wave Unstructured v2.1 (GLWUv2.1, WAVEWATCH III) — WVDIR surface analysis).<br/><b>Data time:</b> 2026-09-25 09:00 AM EDT<br/><b>Source version:</b> glwu-20260925-1300Z-wvdir<br/><b>Status:</b> LIVE / CURRENT MODEL (analysis), 6-hourly cycles</p><p>Turn on/off independently of all other layers. Add this file once; new source cycles appear automatically.</p><p><i>Not endorsed by NOAA.</i></p>]]></description>
    <NetworkLink>
      <name>🌊 LIVE WAVE DIRECTION — auto-refresh</name>
      <Link>
        <href>https://wyattleathorn7.github.io/great-lakes-live-environment/kml/live/Great_Lakes_Live_Wave_Direction.kml</href>
        <refreshMode>onInterval</refreshMode>
        <refreshInterval>3600</refreshInterval>
      </Link>
    </NetworkLink>
  </Document>
</kml>
