<?xml version="1.0" encoding="utf-8"?>
<kml xmlns="http://www.opengis.net/kml/2.2">
  <Document>
    <name>🌞 LIVE SOLAR RADIATION</name>
    <description><![CDATA[<h2>LIVE SOLAR RADIATION</h2><p>This entry auto-refreshes from the live overlay (source: NOAA/NCEP RAP (Rapid Refresh) hourly surface DSWRF (downward short-wave radiation flux)).<br/><b>Data time:</b> 2026-09-25 12:00 PM EDT<br/><b>Source version:</b> rap-20260925-t16z-f01<br/><b>Status:</b> LIVE / CURRENT MODEL (analysis)</p><p>Turn on/off independently of all other layers. Add this file once; new source cycles appear automatically.</p><p><i>Not endorsed by NOAA.</i></p>]]></description>
    <NetworkLink>
      <name>🌞 LIVE SOLAR RADIATION — auto-refresh</name>
      <Link>
        <href>https://wyattleathorn7.github.io/great-lakes-live-environment/kml/live/Great_Lakes_Live_Solar_Radiation.kml</href>
        <refreshMode>onInterval</refreshMode>
        <refreshInterval>900</refreshInterval>
      </Link>
    </NetworkLink>
  </Document>
</kml>
